KUIPER-00071            
1 64818U 25151C   26025.50442052  .00004958  00000+0  68044-3 0  9998
2 64818  51.9023 134.0452 0007030  94.5824 265.5942 14.79833331 28870
KUIPER-00072            
1 64819U 25151D   26025.48027877  .00009797  00000+0  12573-2 0  9991
2 64819  51.8970 114.0238 0000567  64.5889 295.5133 14.81736464 29156
KUIPER-00073            
1 64820U 25151E   26025.47065938  .00006347  00000+0  86072-3 0  9996
2 64820  51.9001 134.1876 0003308 134.5239 225.5994 14.79939386 30052
KUIPER-00074            
1 64821U 25151F   26025.48406570  .00009608  00000+0  12850-2 0  9994
2 64821  51.8987 121.6450 0010853 129.7237 230.4683 14.79987362 29045
KUIPER-00075            
1 64822U 25151G   26025.38887195  .00076594  00000+0  18762-2 0  9996
2 64822  51.8741  72.3026 0003364 111.9309 248.2037 15.40061581 29727
KUIPER-00076            
1 64823U 25151H   26025.48120030  .00009155  00000+0  12247-2 0  9997
2 64823  51.8999 124.1500 0001652 153.5312 206.5735 14.80053572 29018
KUIPER-00077            
1 64824U 25151J   26025.47610854  .00014212  00000+0  18894-2 0  9999
2 64824  51.9010 129.1829 0004289 101.1292 259.0152 14.79928285 28945
KUIPER-00078            
1 64825U 25151K   26025.51255160  .00008906  00000+0  11967-2 0  9997
2 64825  51.8981 126.5144 0001797 167.7699 192.3307 14.79896665 28984
