<?xml version="1.0" encoding="UTF-8"?>
<ndm xmlns:xsi="http://www.w3.org/2001/XMLSchema-instance" xsi:noNamespaceSchemaLocation="https://sanaregistry.org/r/ndmxml_unqualified/ndmxml-2.0.0-master-2.0.xsd">
<omm id="CCSDS_OMM_VERS" version="2.0">
<header><CREATION_DATE/><ORIGINATOR/></header><body><segment><metadata><OBJECT_NAME>KUIPER-00071</OBJECT_NAME><OBJECT_ID>2025-151C</OBJECT_ID><CENTER_NAME>EARTH</CENTER_NAME><REF_FRAME>TEME</REF_FRAME><TIME_SYSTEM>UTC</TIME_SYSTEM><MEAN_ELEMENT_THEORY>SGP4</MEAN_ELEMENT_THEORY></metadata><data><meanElements><EPOCH>2026-01-25T12:06:21.932928</EPOCH><MEAN_MOTION>14.79833331</MEAN_MOTION><ECCENTRICITY>.000703</ECCENTRICITY><INCLINATION>51.9023</INCLINATION><RA_OF_ASC_NODE>134.0452</RA_OF_ASC_NODE><ARG_OF_PERICENTER>94.5824</ARG_OF_PERICENTER><MEAN_ANOMALY>265.5942</MEAN_ANOMALY></meanElements><tleParameters><EPHEMERIS_TYPE>0</EPHEMERIS_TYPE><CLASSIFICATION_TYPE>U</CLASSIFICATION_TYPE><NORAD_CAT_ID>64818</NORAD_CAT_ID><ELEMENT_SET_NO>999</ELEMENT_SET_NO><REV_AT_EPOCH>2887</REV_AT_EPOCH><BSTAR>.68044E-3</BSTAR><MEAN_MOTION_DOT>.4958E-4</MEAN_MOTION_DOT><MEAN_MOTION_DDOT>0</MEAN_MOTION_DDOT></tleParameters></data></segment></body></omm>
<omm id="CCSDS_OMM_VERS" version="2.0">
<header><CREATION_DATE/><ORIGINATOR/></header><body><segment><metadata><OBJECT_NAME>KUIPER-00072</OBJECT_NAME><OBJECT_ID>2025-151D</OBJECT_ID><CENTER_NAME>EARTH</CENTER_NAME><REF_FRAME>TEME</REF_FRAME><TIME_SYSTEM>UTC</TIME_SYSTEM><MEAN_ELEMENT_THEORY>SGP4</MEAN_ELEMENT_THEORY></metadata><data><meanElements><EPOCH>2026-01-25T11:31:36.085728</EPOCH><MEAN_MOTION>14.81736464</MEAN_MOTION><ECCENTRICITY>.0000567</ECCENTRICITY><INCLINATION>51.8970</INCLINATION><RA_OF_ASC_NODE>114.0238</RA_OF_ASC_NODE><ARG_OF_PERICENTER>64.5889</ARG_OF_PERICENTER><MEAN_ANOMALY>295.5133</MEAN_ANOMALY></meanElements><tleParameters><EPHEMERIS_TYPE>0</EPHEMERIS_TYPE><CLASSIFICATION_TYPE>U</CLASSIFICATION_TYPE><NORAD_CAT_ID>64819</NORAD_CAT_ID><ELEMENT_SET_NO>999</ELEMENT_SET_NO><REV_AT_EPOCH>2915</REV_AT_EPOCH><BSTAR>.12573E-2</BSTAR><MEAN_MOTION_DOT>.9797E-4</MEAN_MOTION_DOT><MEAN_MOTION_DDOT>0</MEAN_MOTION_DDOT></tleParameters></data></segment></body></omm>
<omm id="CCSDS_OMM_VERS" version="2.0">
<header><CREATION_DATE/><ORIGINATOR/></header><body><segment><metadata><OBJECT_NAME>KUIPER-00073</OBJECT_NAME><OBJECT_ID>2025-151E</OBJECT_ID><CENTER_NAME>EARTH</CENTER_NAME><REF_FRAME>TEME</REF_FRAME><TIME_SYSTEM>UTC</TIME_SYSTEM><MEAN_ELEMENT_THEORY>SGP4</MEAN_ELEMENT_THEORY></metadata><data><meanElements><EPOCH>2026-01-25T11:17:44.970432</EPOCH><MEAN_MOTION>14.79939386</MEAN_MOTION><ECCENTRICITY>.0003308</ECCENTRICITY><INCLINATION>51.9001</INCLINATION><RA_OF_ASC_NODE>134.1876</RA_OF_ASC_NODE><ARG_OF_PERICENTER>134.5239</ARG_OF_PERICENTER><MEAN_ANOMALY>225.5994</MEAN_ANOMALY></meanElements><tleParameters><EPHEMERIS_TYPE>0</EPHEMERIS_TYPE><CLASSIFICATION_TYPE>U</CLASSIFICATION_TYPE><NORAD_CAT_ID>64820</NORAD_CAT_ID><ELEMENT_SET_NO>999</ELEMENT_SET_NO><REV_AT_EPOCH>3005</REV_AT_EPOCH><BSTAR>.86072E-3</BSTAR><MEAN_MOTION_DOT>.6347E-4</MEAN_MOTION_DOT><MEAN_MOTION_DDOT>0</MEAN_MOTION_DDOT></tleParameters></data></segment></body></omm>
<omm id="CCSDS_OMM_VERS" version="2.0">
<header><CREATION_DATE/><ORIGINATOR/></header><body><segment><metadata><OBJECT_NAME>KUIPER-00074</OBJECT_NAME><OBJECT_ID>2025-151F</OBJECT_ID><CENTER_NAME>EARTH</CENTER_NAME><REF_FRAME>TEME</REF_FRAME><TIME_SYSTEM>UTC</TIME_SYSTEM><MEAN_ELEMENT_THEORY>SGP4</MEAN_ELEMENT_THEORY></metadata><data><meanElements><EPOCH>2026-01-25T11:37:03.276480</EPOCH><MEAN_MOTION>14.79987362</MEAN_MOTION><ECCENTRICITY>.0010853</ECCENTRICITY><INCLINATION>51.8987</INCLINATION><RA_OF_ASC_NODE>121.6450</RA_OF_ASC_NODE><ARG_OF_PERICENTER>129.7237</ARG_OF_PERICENTER><MEAN_ANOMALY>230.4683</MEAN_ANOMALY></meanElements><tleParameters><EPHEMERIS_TYPE>0</EPHEMERIS_TYPE><CLASSIFICATION_TYPE>U</CLASSIFICATION_TYPE><NORAD_CAT_ID>64821</NORAD_CAT_ID><ELEMENT_SET_NO>999</ELEMENT_SET_NO><REV_AT_EPOCH>2904</REV_AT_EPOCH><BSTAR>.1285E-2</BSTAR><MEAN_MOTION_DOT>.9608E-4</MEAN_MOTION_DOT><MEAN_MOTION_DDOT>0</MEAN_MOTION_DDOT></tleParameters></data></segment></body></omm>
<omm id="CCSDS_OMM_VERS" version="2.0">
<header><CREATION_DATE/><ORIGINATOR/></header><body><segment><metadata><OBJECT_NAME>KUIPER-00075</OBJECT_NAME><OBJECT_ID>2025-151G</OBJECT_ID><CENTER_NAME>EARTH</CENTER_NAME><REF_FRAME>TEME</REF_FRAME><TIME_SYSTEM>UTC</TIME_SYSTEM><MEAN_ELEMENT_THEORY>SGP4</MEAN_ELEMENT_THEORY></metadata><data><meanElements><EPOCH>2026-01-25T09:19:58.536480</EPOCH><MEAN_MOTION>15.40061581</MEAN_MOTION><ECCENTRICITY>.0003364</ECCENTRICITY><INCLINATION>51.8741</INCLINATION><RA_OF_ASC_NODE>72.3026</RA_OF_ASC_NODE><ARG_OF_PERICENTER>111.9309</ARG_OF_PERICENTER><MEAN_ANOMALY>248.2037</MEAN_ANOMALY></meanElements><tleParameters><EPHEMERIS_TYPE>0</EPHEMERIS_TYPE><CLASSIFICATION_TYPE>U</CLASSIFICATION_TYPE><NORAD_CAT_ID>64822</NORAD_CAT_ID><ELEMENT_SET_NO>999</ELEMENT_SET_NO><REV_AT_EPOCH>2972</REV_AT_EPOCH><BSTAR>.18762E-2</BSTAR><MEAN_MOTION_DOT>.76594E-3</MEAN_MOTION_DOT><MEAN_MOTION_DDOT>0</MEAN_MOTION_DDOT></tleParameters></data></segment></body></omm>
<omm id="CCSDS_OMM_VERS" version="2.0">
<header><CREATION_DATE/><ORIGINATOR/></header><body><segment><metadata><OBJECT_NAME>KUIPER-00076</OBJECT_NAME><OBJECT_ID>2025-151H</OBJECT_ID><CENTER_NAME>EARTH</CENTER_NAME><REF_FRAME>TEME</REF_FRAME><TIME_SYSTEM>UTC</TIME_SYSTEM><MEAN_ELEMENT_THEORY>SGP4</MEAN_ELEMENT_THEORY></metadata><data><meanElements><EPOCH>2026-01-25T11:32:55.705920</EPOCH><MEAN_MOTION>14.80053572</MEAN_MOTION><ECCENTRICITY>.0001652</ECCENTRICITY><INCLINATION>51.8999</INCLINATION><RA_OF_ASC_NODE>124.1500</RA_OF_ASC_NODE><ARG_OF_PERICENTER>153.5312</ARG_OF_PERICENTER><MEAN_ANOMALY>206.5735</MEAN_ANOMALY></meanElements><tleParameters><EPHEMERIS_TYPE>0</EPHEMERIS_TYPE><CLASSIFICATION_TYPE>U</CLASSIFICATION_TYPE><NORAD_CAT_ID>64823</NORAD_CAT_ID><ELEMENT_SET_NO>999</ELEMENT_SET_NO><REV_AT_EPOCH>2901</REV_AT_EPOCH><BSTAR>.12247E-2</BSTAR><MEAN_MOTION_DOT>.9155E-4</MEAN_MOTION_DOT><MEAN_MOTION_DDOT>0</MEAN_MOTION_DDOT></tleParameters></data></segment></body></omm>
<omm id="CCSDS_OMM_VERS" version="2.0">
<header><CREATION_DATE/><ORIGINATOR/></header><body><segment><metadata><OBJECT_NAME>KUIPER-00077</OBJECT_NAME><OBJECT_ID>2025-151J</OBJECT_ID><CENTER_NAME>EARTH</CENTER_NAME><REF_FRAME>TEME</REF_FRAME><TIME_SYSTEM>UTC</TIME_SYSTEM><MEAN_ELEMENT_THEORY>SGP4</MEAN_ELEMENT_THEORY></metadata><data><meanElements><EPOCH>2026-01-25T11:25:35.777856</EPOCH><MEAN_MOTION>14.79928285</MEAN_MOTION><ECCENTRICITY>.0004289</ECCENTRICITY><INCLINATION>51.9010</INCLINATION><RA_OF_ASC_NODE>129.1829</RA_OF_ASC_NODE><ARG_OF_PERICENTER>101.1292</ARG_OF_PERICENTER><MEAN_ANOMALY>259.0152</MEAN_ANOMALY></meanElements><tleParameters><EPHEMERIS_TYPE>0</EPHEMERIS_TYPE><CLASSIFICATION_TYPE>U</CLASSIFICATION_TYPE><NORAD_CAT_ID>64824</NORAD_CAT_ID><ELEMENT_SET_NO>999</ELEMENT_SET_NO><REV_AT_EPOCH>2894</REV_AT_EPOCH><BSTAR>.18894E-2</BSTAR><MEAN_MOTION_DOT>.14212E-3</MEAN_MOTION_DOT><MEAN_MOTION_DDOT>0</MEAN_MOTION_DDOT></tleParameters></data></segment></body></omm>
<omm id="CCSDS_OMM_VERS" version="2.0">
<header><CREATION_DATE/><ORIGINATOR/></header><body><segment><metadata><OBJECT_NAME>KUIPER-00078</OBJECT_NAME><OBJECT_ID>2025-151K</OBJECT_ID><CENTER_NAME>EARTH</CENTER_NAME><REF_FRAME>TEME</REF_FRAME><TIME_SYSTEM>UTC</TIME_SYSTEM><MEAN_ELEMENT_THEORY>SGP4</MEAN_ELEMENT_THEORY></metadata><data><meanElements><EPOCH>2026-01-25T12:18:04.458240</EPOCH><MEAN_MOTION>14.79896665</MEAN_MOTION><ECCENTRICITY>.0001797</ECCENTRICITY><INCLINATION>51.8981</INCLINATION><RA_OF_ASC_NODE>126.5144</RA_OF_ASC_NODE><ARG_OF_PERICENTER>167.7699</ARG_OF_PERICENTER><MEAN_ANOMALY>192.3307</MEAN_ANOMALY></meanElements><tleParameters><EPHEMERIS_TYPE>0</EPHEMERIS_TYPE><CLASSIFICATION_TYPE>U</CLASSIFICATION_TYPE><NORAD_CAT_ID>64825</NORAD_CAT_ID><ELEMENT_SET_NO>999</ELEMENT_SET_NO><REV_AT_EPOCH>2898</REV_AT_EPOCH><BSTAR>.11967E-2</BSTAR><MEAN_MOTION_DOT>.8906E-4</MEAN_MOTION_DOT><MEAN_MOTION_DDOT>0</MEAN_MOTION_DDOT></tleParameters></data></segment></body></omm>

</ndm>
